ASTRA 1D                
1 23331U 94070A   01262.03773728  .00000117  00000-0  00000+0 0  6401
2 23331   0.0778 238.4719 0007663 267.1322 250.2634  1.00274654 25687
ORION 1                 
1 23413U 94079A   01262.18949876 -.00000273  00000-0  10000-3 0  6382
2 23413   0.0292 299.9950 0001497 175.9195 272.9536  1.00270731 24527
LUCH                    
1 23426U 94082A   01264.63332591  .00000070  00000-0  00000+0 0   969
2 23426   2.8054  90.4925 0004750 307.6442  52.7844  1.00369252 24777
RADUGA 32               
1 23448U 94087A   01261.00250326 -.00000159  00000-0  10000-3 0  2451
2 23448   3.6261  77.5184 0000912 356.2666   4.1560  1.00272326 42318
INTELSAT 704            
1 23461U 95001A   01262.73325333 -.00000024  00000-0  10000-3 0  6898
2 23461   0.0221 282.6631 0001918 212.1976 193.8539  1.00272221 24548
GMS 5                   
1 23522U 95011B   01265.16294560 -.00000300  00000-0  00000+0 0  3646
2 23522   0.7922  78.3569 0000942 261.8794 219.3214  1.00279986 23735
INTELSAT 705            
1 23528U 95013A   01261.86392941 -.00000164  00000-0  00000+0 0  9137
2 23528   0.0190 302.2872 0003503 226.7347 121.8115  1.00270806 23714
BRASILSAT B2            
1 23536U 95016A   01263.42042277 -.00000298  00000-0  10000-3 0  8173
2 23536   0.0433 187.5651 0000524  27.6147 230.5673  1.00270572 23805
HOT BIRD 1              
1 23537U 95016B   01260.70244734  .00000065  00000-0  10000-3 0  4801
2 23537   0.0201 209.2082 0013173  34.6993  18.7032  1.00278327 23766
AMSC 1                  
1 23553U 95019A   01262.34919740 -.00000136  00000-0  10000-3 0  9513
2 23553   0.0165 199.6291 0002100 328.4000 214.9524  1.00270355 23600
INTELSAT 706            
1 23571U 95023A   01263.21925337 -.00000306  00000-0  10000-3 0  6767
2 23571   0.0124 220.8551 0002609 322.4050 201.8024  1.00266011 23226
GOES 9                  
1 23581U 95025A   01265.30816492 -.00000117  00000-0  00000+0 0  7578
2 23581   1.0145  94.2711 0003877 234.3094  39.9227  1.00270588 23217
DBS 3                   
1 23598U 95029A   01261.42824063 -.00000138  00000-0  10000-3 0  8087
2 23598   0.0107 246.2444 0002348 298.5813 225.8930  1.00271742 22979
TDRS F7                 
1 23613U 95035B   01264.55143939  .00000078  00000-0  10000-3 0   315
2 23613   4.6526  73.1151 0002789  93.9850 220.4955  1.00275441 22654
PAS 4                   
1 23636U 95040A   01263.82674516 -.00000078  00000-0  00000+0 0  6160
2 23636   0.0214 171.4877 0005273  22.2810 175.6114  1.00272626 22438
KOREASAT 1              
1 23639U 95041A   01261.81330441  .00000105  00000-0  00000+0 0  6112
2 23639   1.9758  90.0168 0001010 206.2171  41.6276  1.00275648 22496
JCSAT 3                 
1 23649U 95043A   01265.41881944 -.00000364  00000-0  10000-3 0  5969
2 23649   0.0023 248.8282 0004540  53.5565 337.7332  1.00268222 22057
N-STAR-A                
1 23651U 95044A   01263.42016204 -.00000349  00000-0  10000-3 0  6347
2 23651   0.0405 325.4789 0002465 232.8419  84.3051  1.00269698 22187
COSMOS 2319             
1 23653U 95045A   01258.28827794 -.00000152  00000-0  10000-3 0  2339
2 23653   3.1191  81.0481 0006436 334.8959  25.5313  1.00262374 22130
TELSTAR 402R            
1 23670U 95049A   01263.26752525 -.00000206  00000-0  10000-3 0  7611
2 23670   0.0329 309.1618 0004164 305.7322 111.5882  1.00269728 21946
LUCH 1                  
1 23680U 95054A   01261.09834079 -.00000110  00000-0  00000+0 0  8779
2 23680   1.9022 106.5038 0005977 231.6268 129.6223  1.00266320 21776
ASTRA 1E                
1 23686U 95055A   01265.00000000  .00000100  00000-0  10000-3 0  4263
2 23686   0.0122 319.8851 0002995  65.1991 354.9935  1.00273184 21785
GALS 2                  
1 23717U 95063A   01263.81037617  .00000135  00000-0  00000+0 0  6858
2 23717   0.8897  95.4073 0001482 112.6414 119.9489  1.00268440 21397
ASIASAT 2               
1 23723U 95064A   01264.29954282 -.00000327  00000-0  00000+0 0  6994
2 23723   0.0248 295.0853 0002705 239.2527  34.1950  1.00268195 21310
TELECOM 2C              
1 23730U 95067A   01264.04752316 -.00000062  00000-0  00000+0 0  7988
2 23730   0.0550 148.7954 0004162  23.4028 199.9163  1.00272165 21338
INSAT 2C                
1 23731U 95067B   01262.72349363 -.00000277  00000-0  10000-3 0  6685
2 23731   0.0771 283.7319 0006502 255.5491 173.1799  1.00264863 21202
GALAXY 3R               
1 23741U 95069A   01265.70322037 -.00000170  00000-0  00000+0 0  7765
2 23741   0.0101 201.1590 0001773 318.2878   0.2661  1.00270359 21234
ECHOSTAR 1              
1 23754U 95073A   01262.49821458  .00000107  00000-0  00000+0 0  7374
2 23754   0.0389 312.7088 0001462 194.0400 243.0811  1.00274089 20847
PANAMSAT 3R             
1 23764U 96002A   01264.02148645 -.00000289  00000-0  00000+0 0  6202
2 23764   0.0101 203.0644 0002222 339.7029 141.9589  1.00270644 20841
MEASAT 1                
1 23765U 96002B   01262.64543403 -.00000263  00000-0  10000-3 0  6768
2 23765   0.0150 195.7313 0004961 129.1111 357.6063  1.00268139 20817
KOREASAT 2              
1 23768U 96003A   01265.60166362 -.00000377  00000-0  00000+0 0  5339
2 23768   0.0170 183.3719 0004363  77.0076  70.6420  1.00265542 20827
GORIZONT 31             
1 23775U 96005A   01263.80710649  .00000130  00000-0  10000-3 0  1261
2 23775   2.8349  80.6708 0010575 150.4192  98.8415  1.00267718 20729
PALAPA C1               
1 23779U 96006A   01262.82030478  .00000092  00000-0  00000+0 0  8463
2 23779   0.0187 225.9178 0003097 254.6428 223.5687  1.00274242 20580
N STAR B                
1 23781U 96007A   01265.43337963 -.00000326  00000-0  10000-3 0  5447
2 23781   0.0377 311.2286 0002043 255.8253  86.3061  1.00270476 20645
INTELSAT 707            
1 23816U 96015A   01261.01532745 -.00000034  00000-0  00000+0 0  6891
2 23816   0.0232 246.2806 0002660 286.9275 188.3066  1.00272402 20215
INMARSAT 3-F1           
1 23839U 96020A   01265.60563285 -.00000002  00000-0  00000+0 0  6765
2 23839   0.0581 302.2928 0005628 250.1848  90.9462  1.00272965 20055
ASTRA 1F                
1 23842U 96021A   01265.00000000  .00000100  00000-0  10000-3 0  4722
2 23842   0.0122 319.8851 0002995  65.1991 355.0068  1.00273184 19965
MSAT-M1                 
1 23846U 96022A   01265.47602255 -.00000099  00000-0  10000-3 0  8753
2 23846   0.0139  40.8657 0005090 132.0063 253.4221  1.00272661 19876
PALAPA C2               
1 23864U 96030A   01262.71109317 -.00000380  00000-0  00000+0 0  6292
2 23864   0.0090 218.2942 0001427 291.7681 217.5906  1.00268426 19571
AMOS 1                  
1 23865U 96030B   01264.94789730 -.00000054  00000-0  10000-3 0  9200
2 23865   0.0384 319.7350 0004106 198.7622 179.6183  1.00272531 19595
GALAXY 9                
1 23877U 96033A   01264.55635265  .00000028  00000-0  00000+0 0  7489
2 23877   0.0246 209.6874 0000684 324.2108 259.8368  1.00271588 19536
GORIZONT 32             
1 23880U 96034A   01263.91839486  .00000078  00000-0  00000+0 0   796
2 23880   2.6259  83.0404 0000227 123.2121 177.1133  1.00267699 19495
INTELSAT 709            
1 23915U 96035A   01263.04387733 -.00000304  00000-0  10000-3 0  6821
2 23915   0.0099 184.8421 0002170 301.2958 198.6309  1.00267837 19309
APSTAR A1               
1 23943U 96039A   01265.71709780 -.00000337  00000-0  00000+0 0  4102
2 23943   0.0439  42.5514 0001010  63.9135 287.3450  1.00273102 19150
ARABSAT 2A              
1 23948U 96040A   01263.82812395  .00000124  00000-0  10000-3 0  6869
2 23948   0.0253  64.2201 0004365  61.7559 197.8309  1.00272155 19060
TURKSAT 1C              
1 23949U 96040B   01263.82757317  .00000125  00000-0  10000-3 0  6784
2 23949   0.0986 170.9646 0013743 336.8449 191.9503  1.00274758 19057
ITALSAT F2              
1 24208U 96044A   01263.81802663  .00000085  00000-0  00000+0 0  6725
2 24208   0.0795  76.4579 0018698 148.0051  86.0110  1.00277582 18599
TELECOM 2D              
1 24209U 96044B   01261.85120372 -.00000087  00000-0  10000-3 0  5859
2 24209   0.0635 110.8324 0003160  76.4775 109.0628  1.00272917 18866
INMARSAT 3-F2           
1 24307U 96053A   01262.83379631 -.00000145  00000-0  00000+0 0  8416
2 24307   0.0430 302.3709 0004457 208.2238 132.8660  1.00271452 18438
ECHOSTAR 2              
1 24313U 96055A   01265.77302488 -.00000016  00000-0  10000-3 0  6248
2 24313   0.0295 309.1702 0001596 240.6711 330.7815  1.00273559 18508
GE-1                    
1 24315U 96054A   01261.30654829 -.00000125  00000-0  10000-3 0  7166
2 24315   0.0369 275.5487 0002712 258.6292 190.4652  1.00271114 18417
EXPRESS 2               
1 24435U 96058A   01265.19184896 -.00000342  00000-0  00000+0 0  2617
2 24435   2.8715  85.1297 0002898 130.7559 317.7603  1.00261535 18269
ARABSAT 2B              
1 24652U 96063A   01261.67258419  .00000131  00000-0  10000-3 0  4821
2 24652   0.0233 149.4978 0000373   1.5925 119.1876  1.00273899 18243
MEASAT 2                
1 24653U 96063B   01263.63410273 -.00000240  00000-0  00000+0 0  6355
2 24653   0.0110 196.0254 0001679 161.7228  18.0898  1.00268862 17837
HOT BIRD 2              
1 24665U 96067A   01246.07762733  .00000079  00000-0  10000-3 0  2958
2 24665   0.0301 283.3540 0051090 169.2613 291.1065  1.00280565 17916
INMARSAT 3-F3           
1 24674U 96070A   01263.47481201  .00000019  00000-0  10000-3 0  7312
2 24674   0.0496 320.1637 0002417 202.9879 185.2946  1.00276149 17404
GE-2                    
1 24713U 97002A   01262.27202957 -.00000228  00000-0  00000-0 0  6057
2 24713   0.0219 252.8659 0003398 265.1120 213.3032  1.00269742 16998
NAHUEL 1A               
1 24714U 97002B   01262.86752264 -.00000281  00000-0  10000-3 0  5753
2 24714   0.0098 232.6079 0004419 305.6724  61.0199  1.00268595 16998
JCSAT 4                 
1 24732U 97007A   01264.32508681 -.00000369  00000-0  10000-3 0  5929
2 24732   0.0080 220.3701 0001533 324.4316  59.4618  1.00267180 16733
INTELSAT 801            
1 24742U 97009A   01264.02915510 -.00000245  00000-0  10000-3 0  6375
2 24742   0.0354 310.2184 0005251 238.5843 150.1626  1.00269888 16749
